{
  "norad_id": 55338,
  "name": "STARLINK-5658",
  "history": [
    {
      "epoch": "2026-04-10T02:04:13.636416Z",
      "apogee_km": 486.0740317433156,
      "perigee_km": 485.2236086801904,
      "latitude_deg": 2.5244699454673655e-05,
      "longitude_deg": -103.15695212284173,
      "height_km": 485.3172203721985,
      "semi_major_axis_km": 6863.785820211752,
      "eccentricity": 6.195e-05,
      "inclination_deg": 43.0027,
      "raan_deg": 126.225,
      "arg_perigee_deg": 284.7129,
      "mean_anomaly_deg": 75.3654,
      "mean_motion_rev_day": 15.26712204
    },
    {
      "epoch": "2026-04-11T12:36:45.836064Z",
      "apogee_km": 486.0080849179849,
      "perigee_km": 485.07050673597496,
      "latitude_deg": 1.6403298885472563e-05,
      "longitude_deg": 89.17096931563253,
      "height_km": 485.25184055805744,
      "semi_major_axis_km": 6863.67629582698,
      "eccentricity": 6.83e-05,
      "inclination_deg": 43.0016,
      "raan_deg": 118.1057,
      "arg_perigee_deg": 277.8207,
      "mean_anomaly_deg": 82.2567,
      "mean_motion_rev_day": 15.26748747
    },
    {
      "epoch": "2026-04-13T07:00:22.806432Z",
      "apogee_km": 485.9380031827659,
      "perigee_km": 485.13893408470904,
      "latitude_deg": 2.3489316444611e-05,
      "longitude_deg": 161.56228919050437,
      "height_km": 485.32909626814495,
      "semi_major_axis_km": 6863.675468633737,
      "eccentricity": 5.821e-05,
      "inclination_deg": 43.0018,
      "raan_deg": 108.1421,
      "arg_perigee_deg": 267.9386,
      "mean_anomaly_deg": 92.1399,
      "mean_motion_rev_day": 15.26749023
    },
    {
      "epoch": "2026-04-14T11:16:07.500864Z",
      "apogee_km": 485.9782260755219,
      "perigee_km": 485.19260440787457,
      "latitude_deg": 4.650910456909151e-09,
      "longitude_deg": 89.82274232721294,
      "height_km": 485.57219411946664,
      "semi_major_axis_km": 6863.722415241698,
      "eccentricity": 5.723e-05,
      "inclination_deg": 43.0022,
      "raan_deg": 101.4995,
      "arg_perigee_deg": 237.5799,
      "mean_anomaly_deg": 122.4997,
      "mean_motion_rev_day": 15.26733359
    },
    {
      "epoch": "2026-04-15T06:06:36.900000Z",
      "apogee_km": 486.1105492931101,
      "perigee_km": 485.01922069339616,
      "latitude_deg": 1.632067851446024e-05,
      "longitude_deg": 161.99987173603827,
      "height_km": 485.3999604004537,
      "semi_major_axis_km": 6863.701884993253,
      "eccentricity": 7.95e-05,
      "inclination_deg": 43.0026,
      "raan_deg": 97.0729,
      "arg_perigee_deg": 263.8412,
      "mean_anomaly_deg": 96.2349,
      "mean_motion_rev_day": 15.26740209
    },
    {
      "epoch": "2026-04-16T00:57:06.803712Z",
      "apogee_km": 486.1035029723744,
      "perigee_km": 485.0205485400911,
      "latitude_deg": -4.046423373001524e-05,
      "longitude_deg": -125.826484704941,
      "height_km": 485.44141342626915,
      "semi_major_axis_km": 6863.699025756233,
      "eccentricity": 7.889e-05,
      "inclination_deg": 43.0025,
      "raan_deg": 92.645,
      "arg_perigee_deg": 259.0474,
      "mean_anomaly_deg": 101.0288,
      "mean_motion_rev_day": 15.26741163
    }
  ]
}